P/2011 P1 (McNaught),e,5.6609,4.2368,348.9854,7.463816,0.0483351,0.32774094,199.9612,11/22.0/2021,2000,g  9.0,4.0
# From MPC 77806
P/2011 Q3 (McNaught),e,6.0575,32.0276,310.9945,4.971079,0.0889259,0.53283903,335.9537,11/22.0/2021,2000,g 13.5,4.0
# From MPC 98558
P/2011 S1 (Gibbs),e,2.6856,218.8595,192.4256,8.583719,0.0391914,0.20092195,104.2167,11/22.0/2021,2000,g  8.0,4.0
# From MPC 79022
P/2011 UA134 (Spacewatch-PANSTARRS),e,10.4407,40.4035,32.4113,5.607784,0.0742194,0.62946769,272.1570,11/22.0/2021,2000,g 17.5,4.0
# From MPC 77406
P/2011 V1 (Boattini),e,7.3752,46.8117,269.3266,3.856107,0.1301609,0.55048142,149.2485,11/22.0/2021,2000,g 15.5,4.0
# From MPC 82718
P/2011 W1 (PANSTARRS),e,3.7185,161.7868,282.7449,4.662648,0.0978938,0.28752479,352.3947,11/22.0/2021,2000,g 11.5,4.0
# From MPC 79342
P/2011 Y2 (Boattini),e,6.3729,309.3574,131.9141,6.239387,0.0632399,0.70969906,224.5019,11/22.0/2021,2000,g 15.0,4.0
# From MPC 94669
P/2012 B1 (PANSTARRS),e,7.6113,36.2145,162.5029,6.530502,0.0590587,0.40907915,180.2131,11/22.0/2021,2000,g  9.0,4.0
# From MPC 78590
P/2012 C3 (PANSTARRS),e,9.0920,135.3677,344.9542,9.748681,0.0323806,0.63011148,359.9758,10/06.0/2011,2000,g 13.0,4.0
# From MPC 84931
P/2012 F2 (PANSTARRS),e,14.7107,227.0185,33.3129,6.332038,0.0618570,0.54191280,194.6098,11/22.0/2021,2000,g 12.0,4.0
# From MPC 79344
P/2012 G1 (PANSTARRS),e,11.6925,282.5440,286.1149,4.172871,0.1156250,0.38072240,359.9500,06/01.0/2012,2000,g 15.0,4.0
# From MPC 80898
P/2012 K3 (Gibbs),e,13.1939,125.8115,172.2156,3.626644,0.1427074,0.42316180,118.0951,11/22.0/2021,2000,g 15.0,4.0
# From MPC 88326
P/2012 NJ (La Sagra),e,84.6525,315.5509,338.3631,8.463142,0.0400319,0.84704765,138.0226,11/22.0/2021,2000,g 14.5,4.0
# From MPC 81470
P/2012 O1 (McNaught),e,7.4300,91.9657,238.2663,3.541026,0.1479144,0.59456395,147.2165,11/22.0/2021,2000,g 17.5,4.0
# From MPC 80899
P/2012 O2 (McNaught),e,24.4825,120.6823,183.4531,3.624761,0.1428187,0.53254795,132.9455,11/22.0/2021,2000,g 17.0,4.0
# From MPC 82720
P/2012 O3 (McNaught),e,16.6160,336.4144,344.7516,4.572046,0.1008180,0.64698737,340.9684,11/22.0/2021,2000,g 16.5,4.0
# From MPC 82320
P/2012 T2 (PANSTARRS),e,12.5614,73.7182,310.5187,5.733011,0.0718009,0.16168207,225.0452,11/22.0/2021,2000,g 10.0,4.0
# From MPC 80900
P/2012 T3 (PANSTARRS),e,9.5652,114.3976,195.4967,6.151212,0.0646045,0.61717856,225.3696,11/22.0/2021,2000,g 15.0,4.0
# From MPC 82720
P/2012 U2 (PANSTARRS),e,10.7569,185.3092,228.2484,7.136981,0.0516931,0.49892089,170.5010,11/22.0/2021,2000,g 12.5,4.0
# From MPC 84024
P/2012 US27 (Siding Spring),e,39.3536,49.1878,0.8035,5.166248,0.0839346,0.64786304,270.6434,11/22.0/2021,2000,g 13.5,4.0
# From MPC 82721
P/2012 WA34 (Lemmon-PANSTARRS),e,6.0793,93.8248,355.5634,4.711510,0.0963749,0.34606429,303.1409,11/22.0/2021,2000,g 13.5,4.0
# From MPC 82721
P/2013 AL76 (Catalina),e,144.8506,145.9893,27.0711,6.497062,0.0595153,0.68633086,194.7883,11/22.0/2021,2000,g 16.0,4.0
# From MPC 91612
P/2013 G1 (Kowalski),e,5.4623,221.3598,51.4879,6.892262,0.0544705,0.51233328,158.0487,11/22.0/2021,2000,g 11.0,4.0
# From MPC 84025
P/2013 G4 (PANSTARRS),e,5.9164,339.6381,214.6622,4.440242,0.1053402,0.40945124,337.9394,11/22.0/2021,2000,g 15.0,4.0
# From MPC 91613
P/2013 J2 (McNaught),e,15.5260,289.4009,37.7882,6.222734,0.0634939,0.65766482,190.8769,11/22.0/2021,2000,g 13.0,4.0
# From MPC 86229
P/2013 N3 (PANSTARRS),e,2.1740,17.4646,323.9226,7.392156,0.0490397,0.59332839,139.0221,11/22.0/2021,2000,g 13.0,4.0
# From MPC 85834
P/2013 N5 (PANSTARRS),e,23.4494,187.1570,176.9092,6.797798,0.0556098,0.73234404,170.2920,11/22.0/2021,2000,g 17.0,4.0
# From MPC 85834
P/2013 P1 (PANSTARRS),e,18.7252,160.5901,138.1982,8.575025,0.0392510,0.60558608,125.0939,11/22.0/2021,2000,g 12.0,4.0
# From MPC 94671
P/2013 R3 (Catalina-PANSTARRS),e,0.8652,341.9977,11.1998,3.033247,0.1865702,0.27540329,201.5967,11/22.0/2021,2000,g 14.0,4.0
# From unp
P/2013 R3-A (Catalina-PANSTARRS),e,0.8645,341.9646,11.2388,3.033105,0.1865833,0.27537287,201.6337,11/22.0/2021,2000,g  9.0,4.0
# From MPEC 2015-M77
P/2013 R3-B (Catalina-PANSTARRS),e,0.8658,342.0205,11.1737,3.033324,0.1865631,0.27541826,201.5769,11/22.0/2021,2000,g  9.0,4.0
# From MPC 85835
P/2013 T1 (PANSTARRS),e,24.2956,10.0809,346.1197,5.859110,0.0694955,0.62412587,210.6860,11/22.0/2021,2000,g 16.5,4.0
# From MPC 86643
P/2013 T2 (Schwartz),e,9.4573,0.8021,345.5369,3.490775,0.1511198,0.50125082,109.1449,11/22.0/2021,2000,g 16.0,4.0
# From MPC 91613
P/2013 W1 (PANSTARRS),e,4.6955,117.8462,1.2643,3.489092,0.1512291,0.59272561,66.2000,11/22.0/2021,2000,g 17.5,4.0
# From MPC101095
P/2013 YG46 (Spacewatch),e,7.8565,48.8414,242.5627,3.275358,0.1662708,0.45483657,291.7959,11/22.0/2021,2000,g 10.0,4.0
# From MPC 89728
P/2014 A2 (Hill),e,24.5360,106.6298,356.1778,5.927357,0.0682987,0.64530959,202.3966,11/22.0/2021,2000,g 15.0,4.0
# From MPC 92981
P/2014 A3 (PANSTARRS),e,13.7012,230.0087,213.7167,4.617559,0.0993311,0.24740112,308.9342,11/22.0/2021,2000,g 12.0,4.0
# From MPEC 2021-R75
C/2014 B1 (Schwartz),e,28.4115,161.4225,345.6907,4630,0.0000031,0.99793770,0.0000,09/07.1644/2017,2000,g  4.0,4.0
# From MPC102095
P/2014 C1 (TOTAS),e,2.6905,167.7778,23.9180,3.036810,0.1862420,0.44903371,177.5023,11/22.0/2021,2000,g 15.5,4.0
# From MPC 94280
C/2014 F3 (Sheppard-Trujillo),e,6.5885,326.7195,3.8221,15.12122,0.0167619,0.62364817,3.0897,11/22.0/2021,2000,g  6.0,4.0
# From MPC 98560
P/2014 L2 (NEOWISE),e,5.1998,149.3472,182.6799,6.303967,0.0622706,0.64825690,166.9644,11/22.0/2021,2000,g 12.0,4.0
# From MPC 90769
P/2014 L3 (Hill),e,6.2750,115.4773,178.6787,8.172824,0.0421838,0.77348894,113.9110,11/22.0/2021,2000,g 16.0,4.0
# From MPC 91614
P/2014 M4 (PANSTARRS),e,3.3384,263.2319,147.9718,5.871700,0.0692721,0.59475816,174.7533,11/22.0/2021,2000,g 15.0,4.0
# From MPC103844
P/2014 MG4 (Spacewatch-PANSTARRS),e,9.3704,311.7346,299.0948,5.012375,0.0878292,0.25931112,270.3784,11/22.0/2021,2000,g  9.5,4.0
# From MPC 98560
P/2014 O3 (PANSTARRS),e,7.8026,87.6447,204.6996,7.569413,0.0473272,0.38557618,131.2059,11/22.0/2021,2000,g 10.5,4.0
# From MPEC 2021-P47
C/2014 OE4 (PANSTARRS),h,12/13.0017/2016,81.2785,240.4318,65.8973,1.003193,6.250470,2000,11.0,2.0
# From MPEC 2021-W31
C/2014 OG392 (PANSTARRS),e,9.0327,145.7932,254.0797,12.23663,0.0230256,0.18527695,359.8369,11/22.0/2021,2000,g  6.0,4.0
# From MPC 91615
P/2014 R5 (Lemmon-PANSTARRS),e,1.0883,126.5611,213.7440,4.056505,0.1206358,0.41381335,327.4292,11/22.0/2021,2000,g 15.0,4.0
# From MPC 91616
P/2014 U4 (PANSTARRS),e,6.4291,11.8879,347.7658,3.506762,0.1500876,0.46492791,42.2415,11/22.0/2021,2000,g 18.0,4.0
# From MPC 95211
P/2014 V1 (PANSTARRS),e,22.5265,166.2002,177.6058,5.480236,0.0768255,0.53448512,191.5039,11/22.0/2021,2000,g 14.0,4.0
# From MPC 93586
P/2014 W1 (PANSTARRS),e,8.8376,246.2444,152.1888,4.463284,0.1045255,0.38893409,280.8028,11/22.0/2021,2000,g 15.5,4.0
# From MPC105542
P/2014 W4 (PANSTARRS),e,15.2785,33.3707,67.7121,6.594197,0.0582051,0.35243484,125.4014,11/22.0/2021,2000,g 11.0,4.0
# From MPC 94281
P/2014 X1 (Elenin),e,26.0226,61.5281,33.9196,6.207619,0.0637260,0.70885831,160.4462,11/22.0/2021,2000,g 15.0,4.0
# From MPC 92275
P/2015 A3 (PANSTARRS),e,172.5338,277.2266,249.3248,7.810855,0.0451498,0.85082707,111.5148,11/22.0/2021,2000,g 20.0,4.0
# From MPC 99270
P/2015 B1 (PANSTARRS),e,18.0395,352.9707,188.8951,9.496302,0.0336800,0.36734770,76.1860,11/22.0/2021,2000,g  8.5,4.0
# From MPC109141
P/2015 B4 (Lemmon-PANSTARRS),e,1.7608,266.0323,227.3886,8.525398,0.0395942,0.56009647,98.3621,11/22.0/2021,2000,g 11.0,4.0
# From MPC101096
P/2015 C1 (TOTAS-Gibbs),e,13.9013,348.8064,178.2276,6.580298,0.0583896,0.56034114,140.3049,11/22.0/2021,2000,g 12.5,4.0
# From MPC109141
P/2015 D5 (Kowalski),e,20.5134,74.0621,39.7815,8.962921,0.0367307,0.48908818,102.5924,11/22.0/2021,2000,g  9.0,4.0
# From MPC 96866
P/2015 D6 (Lemmon-PANSTARRS),e,20.2014,45.9447,125.1142,7.141028,0.0516491,0.36141180,120.7081,11/22.0/2021,2000,g 10.5,4.0
# From MPEC 2021-P47
C/2015 ER61 (PANSTARRS),e,6.3267,235.0800,68.4462,526.6089,0.0000816,0.99801341,0.0000,05/10.4770/2017,2000,g 11.0,2.0
# From MPEC 2018-BF5
C/2015 E61-B (PANSTARRS),e,6.3283,235.1151,68.5357,1689,0.0000142,0.99937972,0.0000,05/10.4549/2017,2000,g 13.5,2.0
# From MPEC 2021-P47
P/2015 HG16 (PANSTARRS),e,18.7753,58.2586,47.6681,4.753118,0.0951122,0.35233810,258.5727,11/22.0/2021,2000,g 12.5,4.0
# From MPC 95213
P/2015 K5 (PANSTARRS),e,39.9449,134.1800,106.3595,6.723739,0.0565312,0.55273688,133.5949,11/22.0/2021,2000,g 13.5,4.0
# From MPC107684
P/2015 M2 (PANSTARRS),e,3.9715,86.5861,225.7192,7.235279,0.0506432,0.18070628,114.5883,11/22.0/2021,2000,g  8.5,4.0
# From MPEC 2021-P47
C/2015 O1 (PANSTARRS),h,02/19.9736/2018,127.2136,299.8475,89.6097,1.001534,3.726511,2000,6.5,4.0
# From MPC 99819
P/2015 P4 (PANSTARRS),e,8.7173,104.7349,280.5877,6.047801,0.0662686,0.58524352,141.2619,11/22.0/2021,2000,g 14.0,4.0
# From MPC102952
P/2015 PD229 (Cameron-ISON),e,2.0262,342.6347,352.5549,7.186406,0.0511607,0.32812389,117.0991,11/22.0/2021,2000,g 11.5,2.0
# From MPC 96867
P/2015 Q2 (Pimentel),e,146.5213,228.4699,244.5636,7.351157,0.0494505,0.75057060,112.2072,11/22.0/2021,2000,g 15.5,4.0
# From MPC 98562
P/2015 R1 (PANSTARRS),e,22.6871,48.3789,300.4954,5.880075,0.0691241,0.63437386,161.5779,11/22.0/2021,2000,g 14.0,4.0
# From MPC 95734
P/2015 R2 (PANSTARRS),e,15.4846,168.5968,149.8067,4.487108,0.1036941,0.45294250,243.9686,11/22.0/2021,2000,g 14.5,4.0
# From MPC117068
C/2015 T2 (PANSTARRS),e,124.5600,50.9972,30.6595,1747,0.0000135,0.99602846,0.0000,05/18.1653/2017,2000,g  8.0,4.0
# From MPC 96280
P/2015 T3 (PANSTARRS),e,13.0937,120.5019,178.6330,4.326181,0.1095335,0.50818108,359.9227,12/21.0/2014,2000,g 14.0,4.0
# From MPC102953
P/2015 TO19 (Lemmon-PANSTARRS),e,6.4996,321.6482,89.1173,4.554337,0.1014066,0.35867962,211.6500,11/22.0/2021,2000,g 14.0,4.0
# From MPC110080
P/2015 TP200 (LINEAR),e,8.7799,7.0139,82.5141,7.269794,0.0502830,0.53538656,93.1067,11/22.0/2021,2000,g 11.0,4.0
# From MPC115881
